{"type": "FeatureCollection", "features": [ {"type": "Feature", "properties": {"norad_id": 39019, "name": "PLEIADES 1B", "group": "resource", "lat": 81.81262597213265, "lon": -15.710219981866043, "alt_km": 689.5355231795966, "timestamp": "2025-12-25T22:42:16.653322+00:00", "meta": {"OBJECT_NAME": "PLEIADES 1B", "OBJECT_ID": "2012-068A", "EPOCH": "2025-12-25T19:00:07.238880", "MEAN_MOTION": 14.58564976, "ECCENTRICITY": 0.0001148, "INCLINATION": 98.1776, "RA_OF_ASC_NODE": 72.2364, "ARG_OF_PERICENTER": 85.3095, "MEAN_ANOMALY": 274.8236, "EPHEMERIS_TYPE": 0, "CLASSIFICATION_TYPE": "U", "NORAD_CAT_ID": 39019, "ELEMENT_SET_NO": 999, "REV_AT_EPOCH": 69557, "BSTAR": 0.00012932, "MEAN_MOTION_DOT": 5.56e-06, "MEAN_MOTION_DDOT": 0}, "tle": {"line1": "1 39019U 12068A   25359.79175045  .00000556  00000+0  12932-3 0  9996", "line2": "2 39019  98.1776  72.2364 0001148  85.3095 274.8236 14.58564976695579"}}, "geometry": {"type": "Point", "coordinates": [-15.710219981866043, 81.81262597213265]}}, {"type": "Feature", "properties": {"norad_id": 39030, "name": "GOKTURK 2", "group": "resource", "lat": 19.04085082328105, "lon": -161.7224506803346, "alt_km": 644.3627351697805, "timestamp": "2025-12-25T22:42:16.653332+00:00", "meta": {"OBJECT_NAME": "GOKTURK 2", "OBJECT_ID": "2012-073A", "EPOCH": "2025-12-25T17:44:04.046208", "MEAN_MOTION": 14.75310187, "ECCENTRICITY": 0.0001474, "INCLINATION": 97.6884, "RA_OF_ASC_NODE": 200.753, "ARG_OF_PERICENTER": 107.2432, "MEAN_ANOMALY": 252.8939, "EPHEMERIS_TYPE": 0, "CLASSIFICATION_TYPE": "U", "NORAD_CAT_ID": 39030, "ELEMENT_SET_NO": 999, "REV_AT_EPOCH": 69893, "BSTAR": 0.00018049, "MEAN_MOTION_DOT": 1.176e-05, "MEAN_MOTION_DDOT": 0}, "tle": {"line1": "1 39030U 12073A   25359.73893572  .00001176  00000+0  18049-3 0  9995", "line2": "2 39030  97.6884 200.7530 0001474 107.2432 252.8939 14.75310187698931"}}, "geometry": {"type": "Point", "coordinates": [-161.7224506803346, 19.04085082328105]}}, {"type": "Feature", "properties": {"norad_id": 39084, "name": "LANDSAT 8", "group": "resource", "lat": -11.181208700266652, "lon": -113.81081398364304, "alt_km": 706.9291462336487, "timestamp": "2025-12-25T22:42:16.653342+00:00", "meta": {"OBJECT_NAME": "LANDSAT 8", "OBJECT_ID": "2013-008A", "EPOCH": "2025-12-25T16:53:09.174624", "MEAN_MOTION": 14.57115365, "ECCENTRICITY": 0.0001049, "INCLINATION": 98.2055, "RA_OF_ASC_NODE": 67.5848, "ARG_OF_PERICENTER": 93.3193, "MEAN_ANOMALY": 266.8125, "EPHEMERIS_TYPE": 0, "CLASSIFICATION_TYPE": "U", "NORAD_CAT_ID": 39084, "ELEMENT_SET_NO": 999, "REV_AT_EPOCH": 67263, "BSTAR": 0.00010673, "MEAN_MOTION_DOT": 4.36e-06, "MEAN_MOTION_DDOT": 0}, "tle": {"line1": "1 39084U 13008A   25359.70357841  .00000436  00000+0  10673-3 0  9997", "line2": "2 39084  98.2055  67.5848 0001049  93.3193 266.8125 14.57115365672637"}}, "geometry": {"type": "Point", "coordinates": [-113.81081398364304, -11.181208700266652]}}, {"type": "Feature", "properties": {"norad_id": 39086, "name": "SARAL", "group": "resource", "lat": 76.11375368389332, "lon": 41.18913352244938, "alt_km": 773.2732314574396, "timestamp": "2025-12-25T22:42:16.653353+00:00", "meta": {"OBJECT_NAME": "SARAL", "OBJECT_ID": "2013-009A", "EPOCH": "2025-12-25T17:12:25.960032", "MEAN_MOTION": 14.32761454, "ECCENTRICITY": 0.0002958, "INCLINATION": 98.5504, "RA_OF_ASC_NODE": 183.478, "ARG_OF_PERICENTER": 84.2961, "MEAN_ANOMALY": 275.8561, "EPHEMERIS_TYPE": 0, "CLASSIFICATION_TYPE": "U", "NORAD_CAT_ID": 39086, "ELEMENT_SET_NO": 999, "REV_AT_EPOCH": 67076, "BSTAR": 6.435e-05, "MEAN_MOTION_DOT": 1.32e-06, "MEAN_MOTION_DDOT": 0}, "tle": {"line1": "1 39086U 13009A   25359.71696713  .00000132  00000+0  64350-4 0  9990", "line2": "2 39086  98.5504 183.4780 0002958  84.2961 275.8561 14.32761454670761"}}, "geometry": {"type": "Point", "coordinates": [41.18913352244938, 76.11375368389332]}}, {"type": "Feature", "properties": {"norad_id": 39150, "name": "GAOFEN-1", "group": "resource", "lat": 24.075970876818722, "lon": -106.0582979022437, "alt_km": 631.9121905927523, "timestamp": "2025-12-25T22:42:16.653363+00:00", "meta": {"OBJECT_NAME": "GAOFEN-1", "OBJECT_ID": "2013-018A", "EPOCH": "2025-12-25T18:45:04.031424", "MEAN_MOTION": 14.76503845, "ECCENTRICITY": 0.0018544, "INCLINATION": 97.9308, "RA_OF_ASC_NODE": 70.2088, "ARG_OF_PERICENTER": 103.4389, "MEAN_ANOMALY": 256.8889, "EPHEMERIS_TYPE": 0, "CLASSIFICATION_TYPE": "U", "NORAD_CAT_ID": 39150, "ELEMENT_SET_NO": 999, "REV_AT_EPOCH": 68265, "BSTAR": 0.00019208, "MEAN_MOTION_DOT": 1.291e-05, "MEAN_MOTION_DDOT": 0}, "tle": {"line1": "1 39150U 13018A   25359.78129666  .00001291  00000+0  19208-3 0  9995", "line2": "2 39150  97.9308  70.2088 0018544 103.4389 256.8889 14.76503845682657"}}, "geometry": {"type": "Point", "coordinates": [-106.0582979022437, 24.075970876818722]}}, {"type": "Feature", "properties": {"norad_id": 39160, "name": "VNREDSAT 1", "group": "resource", "lat": 27.531618511900994, "lon": 50.58734789479463, "alt_km": 675.6541045132117, "timestamp": "2025-12-25T22:42:16.653373+00:00", "meta": {"OBJECT_NAME": "VNREDSAT 1", "OBJECT_ID": "2013-021B", "EPOCH": "2025-12-25T17:39:36.785088", "MEAN_MOTION": 14.64942018, "ECCENTRICITY": 0.0001167, "INCLINATION": 97.9351, "RA_OF_ASC_NODE": 54.554, "ARG_OF_PERICENTER": 82.738, "MEAN_ANOMALY": 277.3956, "EPHEMERIS_TYPE": 0, "CLASSIFICATION_TYPE": "U", "NORAD_CAT_ID": 39160, "ELEMENT_SET_NO": 999, "REV_AT_EPOCH": 67489, "BSTAR": 0.00016785, "MEAN_MOTION_DOT": 8.53e-06, "MEAN_MOTION_DDOT": 0}, "tle": {"line1": "1 39160U 13021B   25359.73584242  .00000853  00000+0  16785-3 0  9990", "line2": "2 39160  97.9351  54.5540 0001167  82.7380 277.3956 14.64942018674893"}}, "geometry": {"type": "Point", "coordinates": [50.58734789479463, 27.531618511900994]}}, {"type": "Feature", "properties": {"norad_id": 39227, "name": "ARIRANG-5 (KOMPSAT-5)", "group": "resource", "lat": -5.330730840245869, "lon": 3.3467354361778896, "alt_km": 558.6425336542434, "timestamp": "2025-12-25T22:42:16.653383+00:00", "meta": {"OBJECT_NAME": "ARIRANG-5 (KOMPSAT-5)", "OBJECT_ID": "2013-042A", "EPOCH": "2025-12-25T17:05:42.814176", "MEAN_MOTION": 15.04487636, "ECCENTRICITY": 0.0002989, "INCLINATION": 97.6164, "RA_OF_ASC_NODE": 183.8318, "ARG_OF_PERICENTER": 33.6264, "MEAN_ANOMALY": 326.5151, "EPHEMERIS_TYPE": 0, "CLASSIFICATION_TYPE": "U", "NORAD_CAT_ID": 39227, "ELEMENT_SET_NO": 999, "REV_AT_EPOCH": 67777, "BSTAR": 0.00020103, "MEAN_MOTION_DOT": 2.753e-05, "MEAN_MOTION_DDOT": 0}, "tle": {"line1": "1 39227U 13042A   25359.71230109  .00002753  00000+0  20103-3 0  9995", "line2": "2 39227  97.6164 183.8318 0002989  33.6264 326.5151 15.04487636677773"}}, "geometry": {"type": "Point", "coordinates": [3.3467354361778896, -5.330730840245869]}}, {"type": "Feature", "properties": {"norad_id": 39418, "name": "SKYSAT-A", "group": "resource", "lat": 3.189655192741795, "lon": -129.83202823189617, "alt_km": 519.0414331292159, "timestamp": "2025-12-25T22:42:16.653394+00:00", "meta": {"OBJECT_NAME": "SKYSAT-A", "OBJECT_ID": "2013-066C", "EPOCH": "2025-12-25T17:09:33.388128", "MEAN_MOTION": 15.11695287, "ECCENTRICITY": 0.00217, "INCLINATION": 97.4085, "RA_OF_ASC_NODE": 49.5285, "ARG_OF_PERICENTER": 190.0651, "MEAN_ANOMALY": 170.0148, "EPHEMERIS_TYPE": 0, "CLASSIFICATION_TYPE": "U", "NORAD_CAT_ID": 39418, "ELEMENT_SET_NO": 999, "REV_AT_EPOCH": 66226, "BSTAR": 0.00021064, "MEAN_MOTION_DOT": 3.542e-05, "MEAN_MOTION_DDOT": 0}, "tle": {"line1": "1 39418U 13066C   25359.71496977  .00003542  00000+0  21064-3 0  9994", "line2": "2 39418  97.4085  49.5285 0021700 190.0651 170.0148 15.11695287662263"}}, "geometry": {"type": "Point", "coordinates": [-129.83202823189617, 3.189655192741795]}}, {"type": "Feature", "properties": {"norad_id": 39419, "name": "DUBAISAT-2", "group": "resource", "lat": 14.454615488808134, "lon": 171.8789543016497, "alt_km": 543.5427195788143, "timestamp": "2025-12-25T22:42:16.653404+00:00", "meta": {"OBJECT_NAME": "DUBAISAT-2", "OBJECT_ID": "2013-066D", "EPOCH": "2025-12-25T18:47:20.945184", "MEAN_MOTION": 15.0847822, "ECCENTRICITY": 0.0009792, "INCLINATION": 97.4468, "RA_OF_ASC_NODE": 349.7886, "ARG_OF_PERICENTER": 270.3506, "MEAN_ANOMALY": 89.6601, "EPHEMERIS_TYPE": 0, "CLASSIFICATION_TYPE": "U", "NORAD_CAT_ID": 39419, "ELEMENT_SET_NO": 999, "REV_AT_EPOCH": 66023, "BSTAR": 0.00025233, "MEAN_MOTION_DOT": 3.875e-05, "MEAN_MOTION_DDOT": 0}, "tle": {"line1": "1 39419U 13066D   25359.78288131  .00003875  00000+0  25233-3 0  9994", "line2": "2 39419  97.4468 349.7886 0009792 270.3506  89.6601 15.08478220660235"}}, "geometry": {"type": "Point", "coordinates": [171.8789543016497, 14.454615488808134]}}, {"type": "Feature", "properties": {"norad_id": 39574, "name": "GPM-CORE", "group": "resource", "lat": -62.93617632811676, "lon": 54.58298731320751, "alt_km": 432.40885104674453, "timestamp": "2025-12-25T22:42:16.653414+00:00", "meta": {"OBJECT_NAME": "GPM-CORE", "OBJECT_ID": "2014-009C", "EPOCH": "2025-12-25T16:55:25.392000", "MEAN_MOTION": 15.44666199, "ECCENTRICITY": 0.0009072, "INCLINATION": 64.9728, "RA_OF_ASC_NODE": 169.2619, "ARG_OF_PERICENTER": 251.072, "MEAN_ANOMALY": 108.9438, "EPHEMERIS_TYPE": 0, "CLASSIFICATION_TYPE": "U", "NORAD_CAT_ID": 39574, "ELEMENT_SET_NO": 999, "REV_AT_EPOCH": 67101, "BSTAR": 0.00019598, "MEAN_MOTION_DOT": 8.955e-05, "MEAN_MOTION_DDOT": 0}, "tle": {"line1": "1 39574U 14009C   25359.70515500  .00008955  00000+0  19598-3 0  9990", "line2": "2 39574  64.9728 169.2619 0009072 251.0720 108.9438 15.44666199671014"}}, "geometry": {"type": "Point", "coordinates": [54.58298731320751, -62.93617632811676]}}]}